NORAD_CAT_ID,OBJECT_NAME,OBJECT_TYPE,EPOCH,MEAN_MOTION,ECCENTRICITY,INCLINATION,RA_OF_ASC_NODE,ARG_OF_PERICENTER,MEAN_ANOMALY,BSTAR,MEAN_MOTION_DOT,MEAN_MOTION_DDOT,TLE_LINE0,TLE_LINE1,TLE_LINE2,SEMIMAJOR_AXIS,PERIOD,APOGEE,PERIGEE,DECAYED
55921.0,STARLINK-5861,PAYLOAD,2024-08-20 12:47:48,14.98335822,0.0002551,70.0002,291.8898,266.281,93.8057,6.5009e-05,6.83e-06,0.0,0 STARLINK-5861,1 55921U 23037H   24233.53319493  .00000683  00000-0  65009-4 0  9999,2 55921  70.0002 291.8898 0002551 266.2810  93.8057 14.98335822 79021,6950.175,96.107,573.813,570.267,0.0
55921.0,STARLINK-5861,PAYLOAD,2024-08-20 14:23:55,14.98350343,0.0002638,70.0001,291.7212,265.8528,94.2329,-0.00021708,-2.683e-05,0.0,0 STARLINK-5861,1 55921U 23037H   24233.59994984 -.00002683  00000-0 -21708-3 0  9990,2 55921  70.0001 291.7212 0002638 265.8528  94.2329 14.98350343 78690,6950.13,96.106,573.828,570.162,0.0
55921.0,STARLINK-5861,PAYLOAD,2024-08-21 04:49:08,14.98329702,0.0002683,69.9996,290.2059,269.3347,90.7505,0.00012887,1.445e-05,0.0,0 STARLINK-5861,1 55921U 23037H   24234.20079653  .00001445  00000-0  12887-3 0  9997,2 55921  69.9996 290.2059 0002683 269.3347  90.7505 14.98329702 79122,6950.194,96.107,573.924,570.194,0.0
55921.0,STARLINK-5861,PAYLOAD,2024-08-21 12:49:49,14.98327856,0.0002798,69.9994,289.3643,269.4017,90.6821,9.9267e-05,1.092e-05,0.0,0 STARLINK-5861,1 55921U 23037H   24234.53459900  .00001092  00000-0  99267-4 0  9996,2 55921  69.9994 289.3643 0002798 269.4017  90.6821 14.98327856 78835,6950.2,96.107,574.009,570.12,0.0
55921.0,STARLINK-5861,PAYLOAD,2024-08-21 20:50:29,14.9833113,0.0002774,69.9995,288.5229,268.5469,91.5372,7.5237e-05,8.05e-06,0.0,0 STARLINK-5861,1 55921U 23037H   24234.86839729  .00000805  00000-0  75237-4 0  9995,2 55921  69.9995 288.5229 0002774 268.5469  91.5372 14.98331130 78888,6950.189,96.107,573.982,570.126,0.0
